EPOCH,NORAD_CAT_ID,MEAN_MOTION,ECCENTRICITY,INCLINATION,RA_OF_ASC_NODE,ARG_OF_PERICENTER,MEAN_ANOMALY,MEAN_MOTION_DOT,BSTAR,TLE_LINE1,TLE_LINE2
2023-03-17 12:42:05,50803,15.08835384,0.0001192,53.2166,14.0661,69.0924,291.0196,0.00005626,0.0003713,1 50803U 22001A   23076.52923232  .00005626  00000-0  37130-3 0  9993,2 50803  53.2166  14.0661 0001192  69.0924 291.0196 15.08835384 66131
2023-03-17 19:03:38,50803,15.08838174,0.0001202,53.2162,12.8766,68.6074,291.5046,0.00006551,0.00042933,1 50803U 22001A   23076.79419304  .00006551  00000-0  42933-3 0  9997,2 50803  53.2162  12.8766 0001202  68.6074 291.5046 15.08838174 67446
2023-03-18 12:32:52,50803,15.08836303,0.000188,53.2162,9.6036,67.9987,292.1205,0.00002032,0.00014576,1 50803U 22001A   23077.52283562  .00002032  00000-0  14576-3 0  9996,2 50803  53.2162   9.6036 0001880  67.9987 292.1205 15.08836303 67555
2023-03-18 12:32:52,50803,15.08836303,0.000188,53.2162,9.6036,67.9987,292.1205,0.00002032,0.00014576,1 50803U 22001A   23077.52283562  .00002032  00000-0  14576-3 0  9996,2 50803  53.2162   9.6036 0001880  67.9987 292.1205 15.08836303 66284
2023-03-19 12:23:40,50803,15.08840603,0.0001311,53.2162,5.1446,69.4361,290.6772,0.00002577,0.00017993,1 50803U 22001A   23078.51643700  .00002577  00000-0  17993-3 0  9990,2 50803  53.2162   5.1446 0001311  69.4361 290.6772 15.08840603 66439
2023-03-20 04:17:31,50803,15.0885249,0.0001307,53.2168,2.1693,77.3053,282.8086,0.00005295,0.00035042,1 50803U 22001A   23079.17883279  .00005295  00000-0  35042-3 0  9995,2 50803  53.2168   2.1693 0001307  77.3053 282.8086 15.08852490 67807
2023-03-20 04:17:31,50803,15.0885249,0.0001307,53.2168,2.1693,77.3053,282.8086,0.00005295,0.00035042,1 50803U 22001A   23079.17883279  .00005295  00000-0  35042-3 0  9995,2 50803  53.2168   2.1693 0001307  77.3053 282.8086 15.08852490 66536
2023-03-21 04:08:17,50803,15.088558,0.0001305,53.2163,357.7093,88.6741,271.44,0.00005663,0.00037345,1 50803U 22001A   23080.17242946  .00005663  00000-0  37345-3 0  9994,2 50803  53.2163 357.7093 0001305  88.6741 271.4400 15.08855800 67950
2023-03-21 04:08:17,50803,15.088558,0.0001305,53.2163,357.7093,88.6741,271.44,0.00005663,0.00037345,1 50803U 22001A   23080.17242946  .00005663  00000-0  37345-3 0  9994,2 50803  53.2163 357.7093 0001305  88.6741 271.4400 15.08855800 66689
2023-03-21 21:37:32,50803,15.08841841,0.0001222,53.2167,354.4383,106.5915,253.5212,0.00000584,0.000054755,1 50803U 22001A   23080.90107208  .00000584  00000-0  54755-4 0  9998,2 50803  53.2167 354.4383 0001222 106.5915 253.5212 15.08841841 66794
2023-03-22 03:59:05,50803,15.08847057,0.0001101,53.2174,353.2484,90.7676,269.3442,0.00006393,0.00041934,1 50803U 22001A   23081.16603223  .00006393  00000-0  41934-3 0  9993,2 50803  53.2174 353.2484 0001101  90.7676 269.3442 15.08847057 68107
2023-03-22 21:28:20,50803,15.08839918,0.0001029,53.2175,349.978,91.8213,268.2897,0.00003378,0.0002302,1 50803U 22001A   23081.89467599  .00003378  00000-0  23020-3 0  9993,2 50803  53.2175 349.9780 0001029  91.8213 268.2897 15.08839918 66946
2023-03-23 03:49:52,50803,15.08845505,0.0001147,53.2171,348.7873,93.1485,266.9638,0.00005431,0.00035902,1 50803U 22001A   23082.15963280  .00005431  00000-0  35902-3 0  9995,2 50803  53.2171 348.7873 0001147  93.1485 266.9638 15.08845505 68252
2023-03-23 03:49:52,50803,15.08845505,0.0001147,53.2171,348.7873,93.1485,266.9638,0.00005431,0.00035902,1 50803U 22001A   23082.15963280  .00005431  00000-0  35902-3 0  9995,2 50803  53.2171 348.7873 0001147  93.1485 266.9638 15.08845505 66980
2023-03-23 21:19:07,50803,15.08839261,0.000104,53.2162,345.5137,109.6431,250.4673,0.00002112,0.00015075,1 50803U 22001A   23082.88827572  .00002112  00000-0  15075-3 0  9990,2 50803  53.2162 345.5137 0001040 109.6431 250.4673 15.08839261 67096
2023-03-24 02:05:16,50803,15.08860557,0.0000893,53.2166,344.6246,94.5546,265.5548,0.00008339,0.00054109,1 50803U 22001A   23083.08699137  .00008339  00000-0  54109-3 0  9995,2 50803  53.2166 344.6246 0000893  94.5546 265.5548 15.08860557 67129
2023-03-24 21:09:53,50803,15.08847385,0.0001091,53.2163,341.0584,83.627,276.4847,0.00001421,0.00010731,1 50803U 22001A   23083.88187113  .00001421  00000-0  10731-3 0  9997,2 50803  53.2163 341.0584 0001091  83.6270 276.4847 15.08847385 68517
2023-03-24 21:09:53,50803,15.08847385,0.0001091,53.2163,341.0584,83.627,276.4847,0.00001421,0.00010731,1 50803U 22001A   23083.88187113  .00001421  00000-0  10731-3 0  9997,2 50803  53.2163 341.0584 0001091  83.6270 276.4847 15.08847385 67246
2023-03-25 21:00:41,50803,15.08828071,0.0001371,53.2155,336.5947,88.5094,271.6055,-0.00004849,-0.00028684,1 50803U 22001A   23084.87548188 -.00004849  00000-0 -28684-3 0  9995,2 50803  53.2155 336.5947 0001371  88.5094 271.6055 15.08828071 68664
2023-03-25 22:36:04,50803,15.08827236,0.0001148,53.2159,336.2964,95.4509,264.6614,-0.00004657,-0.00027477,1 50803U 22001A   23084.94172215 -.00004657  00000-0 -27477-3 0  9993,2 50803  53.2159 336.2964 0001148  95.4509 264.6614 15.08827236 67400
2023-03-26 20:51:28,50803,15.08838923,0.0001081,53.2163,332.137,77.9041,282.2072,0.00002496,0.00017485,1 50803U 22001A   23085.86908392  .00002496  00000-0  17485-3 0  9993,2 50803  53.2163 332.1370 0001081  77.9041 282.2072 15.08838923 68818
2023-03-26 22:26:51,50803,15.08841149,0.0001205,53.2151,331.8393,78.2687,281.844,0.00003448,0.00023463,1 50803U 22001A   23085.93532364  .00003448  00000-0  23463-3 0  9994,2 50803  53.2151 331.8393 0001205  78.2687 281.8440 15.08841149 67552
2023-03-27 01:37:38,50803,15.08847242,0.0001272,53.2156,331.2447,75.6831,284.4303,0.0000579,0.00038149,1 50803U 22001A   23086.06780245  .00005790  00000-0  38149-3 0  9991,2 50803  53.2156 331.2447 0001272  75.6831 284.4303 15.08847242 67576
2023-03-27 20:42:16,50803,15.08842945,0.0001493,53.2171,327.6747,67.7568,292.3583,0.00004337,0.00029038,1 50803U 22001A   23086.86269037  .00004337  00000-0  29038-3 0  9993,2 50803  53.2171 327.6747 0001493  67.7568 292.3583 15.08842945 68966
2023-03-27 22:17:39,50803,15.08844904,0.000111,53.2155,327.3788,73.6788,286.4326,0.00004538,0.000303,1 50803U 22001A   23086.92892840  .00004538  00000-0  30300-3 0  9991,2 50803  53.2155 327.3788 0001110  73.6788 286.4326 15.08844904 67703
2023-03-28 01:28:25,50803,15.08847328,0.0001113,53.2154,326.7835,79.9937,280.1181,0.00004511,0.00030124,1 50803U 22001A   23087.06140656  .00004511  00000-0  30124-3 0  9993,2 50803  53.2154 326.7835 0001113  79.9937 280.1181 15.08847328 67721
2023-03-28 20:33:02,50803,15.08855609,0.0001087,53.215,323.2166,64.815,295.2954,-0.00000071,0.00001361,1 50803U 22001A   23087.85628002 -.00000071  00000-0  13610-4 0  9996,2 50803  53.2150 323.2166 0001087  64.8150 295.2954 15.08855609 67845
2023-03-29 01:19:11,50803,15.08859753,0.0001107,53.2156,322.3235,85.3013,274.8105,0.00004849,0.00032234,1 50803U 22001A   23088.05499787  .00004849  00000-0  32234-3 0  9993,2 50803  53.2156 322.3235 0001107  85.3013 274.8105 15.08859753 69147
2023-03-29 01:19:11,50803,15.08859753,0.0001107,53.2156,322.3235,85.3013,274.8105,0.00004849,0.00032234,1 50803U 22001A   23088.05499787  .00004849  00000-0  32234-3 0  9993,2 50803  53.2156 322.3235 0001107  85.3013 274.8105 15.08859753 67875
2023-03-29 18:48:27,50803,15.08839857,0.0001283,53.2147,319.0528,94.1723,265.9416,0.00001034,0.000083016,1 50803U 22001A   23088.78364659  .00001034  00000-0  83016-4 0  9990,2 50803  53.2147 319.0528 0001283  94.1723 265.9416 15.08839857 69257
2023-03-29 20:23:50,50803,15.08840771,0.0001274,53.2149,318.7554,93.787,266.3268,0.00001479,0.00011098,1 50803U 22001A   23088.84988645  .00001479  00000-0  11098-3 0  9997,2 50803  53.2149 318.7554 0001274  93.7870 266.3268 15.08840771 67998
2023-03-30 01:09:59,50803,15.08847512,0.0001516,53.2165,317.8598,109.6325,250.4831,0.000043,0.00028802,1 50803U 22001A   23089.04860359  .00004300  00000-0  28802-3 0  9998,2 50803  53.2165 317.8598 0001516 109.6325 250.4831 15.08847512 69290
2023-03-30 21:49:59,50803,15.08860487,0.000115,53.2158,313.9968,86.3081,273.8042,0.00009036,0.00058478,1 50803U 22001A   23089.90971626  .00009036  00000-0  58478-3 0  9996,2 50803  53.2158 313.9968 0001150  86.3081 273.8042 15.08860487 68157
2023-03-31 13:43:51,50803,15.08844871,0.0001593,53.2155,311.021,92.842,267.2754,0.00006346,0.00041638,1 50803U 22001A   23090.57212188  .00006346  00000-0  41638-3 0  9993,2 50803  53.2155 311.0210 0001593  92.8420 267.2754 15.08844871 69521
2023-04-01 00:51:33,50803,15.08852491,0.0001079,53.2153,308.9426,102.6065,257.5048,0.00016391,0.0010452,1 50803U 22001A   23091.03580004  .00016391  00000-0  10452-2 0  9990,2 50803  53.2153 308.9426 0001079 102.6065 257.5048 15.08852491 68329
2023-04-01 21:31:35,50803,15.08826388,0.0001592,53.2155,305.0777,105.8712,254.2456,0.00003683,0.00024947,1 50803U 22001A   23091.89693324  .00003683  00000-0  24947-3 0  9999,2 50803  53.2155 305.0777 0001592 105.8712 254.2456 15.08826388 69720
2023-04-01 21:31:35,50803,15.08826388,0.0001592,53.2155,305.0777,105.8712,254.2456,0.00003683,0.00024947,1 50803U 22001A   23091.89693324  .00003683  00000-0  24947-3 0  9999,2 50803  53.2155 305.0777 0001592 105.8712 254.2456 15.08826388 68459
2023-04-02 13:25:27,50803,15.08823965,0.0001002,53.2147,302.1039,97.2792,262.8314,0.0000271,0.00018834,1 50803U 22001A   23092.55934288  .00002710  00000-0  18834-3 0  9998,2 50803  53.2147 302.1039 0001002  97.2792 262.8314 15.08823965 69825
2023-04-02 21:22:23,50803,15.08830513,0.0000865,53.2146,300.6166,84.0457,276.0633,0.00009976,0.00064412,1 50803U 22001A   23092.89054671  .00009976  00000-0  64412-3 0  9998,2 50803  53.2146 300.6166 0000865  84.0457 276.0633 15.08830513 68609
2023-04-02 22:57:46,50803,15.08831697,0.0000742,53.2139,300.3189,85.5623,274.5453,0.00010505,0.0006773,1 50803U 22001A   23092.95678692  .00010505  00000-0  67730-3 0  9996,2 50803  53.2139 300.3189 0000742  85.5623 274.5453 15.08831697 68616
